HAWK-A                  
1 43765U 18099H   26068.67628545  .00008617  00000+0  36104-3 0  9995
2 43765  97.4051 122.2425 0034260 275.5523  84.1807 15.23231043397949
STARLINK-1372           
1 45543U 20025N   26068.38101215  .00002506  00000+0  96690-4 0  9999
2 45543  53.1606 102.4567 0001195  90.9639 269.1499 15.30207893324222
