[{"OBJECT_NAME":"HAWK-A","OBJECT_ID":"2018-099H","EPOCH":"2026-03-09T16:13:51.062880","MEAN_MOTION":15.23231043,"ECCENTRICITY":0.00342596,"INCLINATION":97.4051,"RA_OF_ASC_NODE":122.2425,"ARG_OF_PERICENTER":275.5523,"MEAN_ANOMALY":84.1807,"EPHEMERIS_TYPE":0,"CLASSIFICATION_TYPE":"U","NORAD_CAT_ID":43765,"ELEMENT_SET_NO":999,"REV_AT_EPOCH":39794,"BSTAR":0.00036104215,"MEAN_MOTION_DOT":8.617e-5,"MEAN_MOTION_DDOT":0},{"OBJECT_NAME":"STARLINK-1372","OBJECT_ID":"2020-025N","EPOCH":"2026-03-09T09:08:39.449760","MEAN_MOTION":15.30207893,"ECCENTRICITY":0.00011953,"INCLINATION":53.1606,"RA_OF_ASC_NODE":102.4567,"ARG_OF_PERICENTER":90.9639,"MEAN_ANOMALY":269.1499,"EPHEMERIS_TYPE":0,"CLASSIFICATION_TYPE":"U","NORAD_CAT_ID":45543,"ELEMENT_SET_NO":999,"REV_AT_EPOCH":32422,"BSTAR":9.6690214e-5,"MEAN_MOTION_DOT":2.506e-5,"MEAN_MOTION_DDOT":0}]
